STARLINK-37992          
1 69681U 26145E   26201.83335647 -.02402659  00000+0 -22357-1 0  9997
2 69681  97.2844  48.9487 0001346  78.7580 307.9870 15.71053113  5337
STARLINK-37997          
1 69682U 26145F   26201.82693167 -.00258301  00000+0 -18392-2 0  9997
2 69682  97.2850  48.9465 0004771 135.6809 224.4839 15.74458524  5317
STARLINK-37990          
1 69683U 26145G   26201.83335647 -.02762815  00000+0 -28632-1 0  9994
2 69683  97.2844  48.9443 0001302  63.9698 316.1620 15.68381092  5330
STARLINK-37951          
1 69684U 26145H   26201.76255003  .00239539  00000+0  15530-2 0  9996
2 69684  97.2852  48.8814 0001467  54.7012 305.4390 15.75327315  4050
STARLINK-37957          
1 69685U 26145J   26201.31685404  .00019535  00000+0  13285-3 0  9998
2 69685  97.2851  48.4157 0003617  45.0296 315.1262 15.74953398  3984
STARLINK-37968          
1 69686U 26145K   26201.83335647 -.02423589  00000+0 -30600-1 0  9997
2 69686  97.2855  48.9554 0001213  99.9548 292.3791 15.62971410  5339
STARLINK-37977          
1 69687U 26145L   26200.54776317  .00097126  00000+0  64425-3 0  9992
2 69687  97.2836  47.6256 0001244  87.1386 273.0021 15.75204737  3860
STARLINK-37908          
1 69688U 26145M   26201.24444931  .00151094  00000+0  99505-3 0  9997
2 69688  97.2853  48.3621 0001457  76.3900 283.7528 15.75213041  3972
STARLINK-37979          
1 69689U 26145N   26200.03716597  .00187711  00000+0  12424-2 0  9993
2 69689  97.2836  47.0963 0004064 329.7447  30.3583 15.74987322  3782
STARLINK-37940          
1 69690U 26145P   26201.11598400  .00130440  00000+0  86208-3 0  9995
2 69690  97.2839  48.2309 0001285  73.7239 286.4167 15.75190687  3953
STARLINK-37961          
1 69691U 26145Q   26200.54106436  .00063371  00000+0  42418-3 0  9999
2 69691  97.2842  47.6340 0001229 131.0284 229.1087 15.75103371  3861
STARLINK-37787          
1 69692U 26145R   26201.04716234  .00184740  00000+0  12084-2 0  9998
2 69692  97.2844  48.1728 0000910  49.9942 310.1403 15.75274543  3946
STARLINK-37962          
1 69693U 26145S   26201.80776172 -.00136694  00000+0 -94056-3 0  9997
2 69693  97.2847  48.9745 0001856  51.5131 308.6300 15.74934828  4066
STARLINK-37953          
1 69694U 26145T   26200.09531428  .00118908  00000+0  78739-3 0  9997
2 69694  97.2820  47.1697 0002892  77.2614 282.8974 15.75176117  3796
STARLINK-37926          
1 69695U 26145U   26201.83335647 -.02534837  00000+0 -27966-1 0  9997
2 69695  97.2851  48.9880 0001849  84.5659  25.1419 15.66507041  5333
STARLINK-37959          
1 69696U 26145V   26201.30056749  .00156423  00000+0  10291-2 0  9994
2 69696  97.2840  48.4377 0001233  76.8333 283.3070 15.75222698  3980
STARLINK-37976          
1 69697U 26145W   26201.87010275 -.00625529  00000+0 -50359-2 0  9990
2 69697  97.2850  49.0422 0000842 104.5503 255.5854 15.72620614  4072
STARLINK-37912          
1 69698U 26145X   26201.86843360  .00233854  00000+0  15256-2 0  9990
2 69698  97.2847  49.0443 0001365  90.5893 269.5528 15.75198857  4074
STARLINK-37974          
1 69699U 26145Y   26201.10540454  .00047977  00000+0  32061-3 0  9999
2 69699  97.2826  48.2458 0003196  71.4063 288.7550 15.75193191  3950
STARLINK-37955          
1 69700U 26145Z   26201.83335647 -.02477218  00000+0 -23614-1 0  9999
2 69700  97.2843  49.0104 0001886  98.6143  71.6186 15.69974894  5331
STRIX-8                 
1 69701U 26146A   26201.72919257  .00002654  00000+0  19991-3 0  9993
2 69701  41.9905 342.4366 0006489  63.3029 296.8462 15.04462447  3615
ELECTRON R/B            
1 69702U 26146B   26201.54987214  .00472511  81899-4  10342-2 0  9995
2 69702  42.0727 329.5526 0153345  58.1806 303.3879 15.79842259  3759
ELECTRON KICK STAGE R/B 
1 69703U 26146C   26201.72100198  .00002384  00000+0  17855-3 0  9998
2 69703  41.9889 342.3703 0008303  63.4984 296.6694 15.04968281  3612
STARLINK-38055          
1 69704U 26147A   26201.83335647 -.01195151  00000+0 -85732-2 0  9997
2 69704  97.2841 238.5441 0001643  76.5332  90.1955 15.76349138  4646
STARLINK-37898          
1 69705U 26147B   26201.83335647 -.02533606  00000+0 -22159-1 0  9993
2 69705  97.2841 238.5369 0001935  74.4457  77.1828 15.72092935  4645
STARLINK-37970          
1 69706U 26147C   26201.83335647 -.02366306  00000+0 -21686-1 0  9999
2 69706  97.2840 238.5380 0001941  68.1004  83.2811 15.71342450  4642
STARLINK-37975          
1 69707U 26147D   26201.83335647 -.02526166  00000+0 -18231-1 0  9994
2 69707  97.2837 238.5511 0002105  87.4325  92.9429 15.77091307  4648
STARLINK-37972          
1 69708U 26147E   26201.86325848  .00196875  00000+0  10030-2 0  9996
2 69708  97.2825 238.5848 0001111 102.8230 257.3162 15.80871204  4751
STARLINK-37963          
1 69709U 26147F   26201.83335647 -.01186716  00000+0 -10054-1 0  9993
2 69709  97.2841 238.5464 0001450  75.6039  98.1971 15.72500094  4648
STARLINK-37969          
1 69710U 26147G   26201.61244852  .00185110  00000+0  13098-2 0  9994
2 69710  97.2842 238.3145 0006061 288.9235  71.1372 15.73422979  4715
