OBJECT_NAME,OBJECT_ID,EPOCH,MEAN_MOTION,ECCENTRICITY,INCLINATION,RA_OF_ASC_NODE,ARG_OF_PERICENTER,MEAN_ANOMALY,EPHEMERIS_TYPE,CLASSIFICATION_TYPE,NORAD_CAT_ID,ELEMENT_SET_NO,REV_AT_EPOCH,BSTAR,MEAN_MOTION_DOT,MEAN_MOTION_DDOT
STARLINK-37992,2026-145E,2026-07-20T20:00:01.999008,15.71053113,.0001346,97.2844,48.9487,78.7580,307.9870,0,U,69681,999,533,-.22357E-1,-.2402659E-1,0
STARLINK-37997,2026-145F,2026-07-20T19:50:46.896288,15.74458524,.0004771,97.2850,48.9465,135.6809,224.4839,0,U,69682,999,531,-.18392E-2,-.258301E-2,0
STARLINK-37990,2026-145G,2026-07-20T20:00:01.999008,15.68381092,.0001302,97.2844,48.9443,63.9698,316.1620,0,U,69683,999,533,-.28632E-1,-.2762815E-1,0
STARLINK-37951,2026-145H,2026-07-20T18:18:04.322592,15.75327315,.0001467,97.2852,48.8814,54.7012,305.4390,0,U,69684,999,405,.1553E-2,.239539E-2,0
STARLINK-37957,2026-145J,2026-07-20T07:36:16.189056,15.74953398,.00036179,97.2851,48.4157,45.0296,315.1262,0,U,69685,999,398,.13284963E-3,.19535E-3,0
STARLINK-37968,2026-145K,2026-07-20T20:00:01.999008,15.62971410,.0001213,97.2855,48.9554,99.9548,292.3791,0,U,69686,999,533,-.306E-1,-.2423589E-1,0
STARLINK-37977,2026-145L,2026-07-19T13:08:46.737888,15.75204737,.00012442,97.2836,47.6256,87.1386,273.0021,0,U,69687,999,386,.64425397E-3,.97126E-3,0
STARLINK-37908,2026-145M,2026-07-20T05:52:00.420384,15.75213041,.00014572,97.2853,48.3621,76.3900,283.7528,0,U,69688,999,397,.99505477E-3,.151094E-2,0
STARLINK-37979,2026-145N,2026-07-19T00:53:31.139808,15.74987322,.0004064,97.2836,47.0963,329.7447,30.3583,0,U,69689,999,378,.12423645E-2,.187711E-2,0
STARLINK-37940,2026-145P,2026-07-20T02:47:01.017600,15.75190687,.00012857,97.2839,48.2309,73.7239,286.4167,0,U,69690,999,395,.86207668E-3,.13044E-2,0
STARLINK-37961,2026-145Q,2026-07-19T12:59:07.960704,15.75103371,.00012296,97.2842,47.6340,131.0284,229.1087,0,U,69691,999,386,.42417508E-3,.63371E-3,0
STARLINK-37787,2026-145R,2026-07-20T01:07:54.826176,15.75274543,.00009101,97.2844,48.1728,49.9942,310.1403,0,U,69692,999,394,.12084237E-2,.18474E-2,0
STARLINK-37962,2026-145S,2026-07-20T19:23:10.612608,15.74934828,.0001856,97.2847,48.9745,51.5131,308.6300,0,U,69693,999,406,-.94056E-3,-.136694E-2,0
STARLINK-37953,2026-145T,2026-07-19T02:17:15.153792,15.75176117,.00028922,97.2820,47.1697,77.2614,282.8974,0,U,69694,999,379,.78738845E-3,.118908E-2,0
STARLINK-37926,2026-145U,2026-07-20T20:00:01.999008,15.66507041,.0001849,97.2851,48.9880,84.5659,25.1419,0,U,69695,999,533,-.27966E-1,-.2534837E-1,0
STARLINK-37959,2026-145V,2026-07-20T07:12:49.031136,15.75222698,.0001233,97.2840,48.4377,76.8333,283.3070,0,U,69696,999,398,.10290511E-2,.156423E-2,0
STARLINK-37976,2026-145W,2026-07-20T20:52:56.877600,15.72620614,.0000842,97.2850,49.0422,104.5503,255.5854,0,U,69697,999,407,-.50359E-2,-.625529E-2,0
STARLINK-37912,2026-145X,2026-07-20T20:50:32.663040,15.75198857,.0001365,97.2847,49.0443,90.5893,269.5528,0,U,69698,999,407,.15256E-2,.233854E-2,0
STARLINK-37974,2026-145Y,2026-07-20T02:31:46.952256,15.75193191,.00031968,97.2826,48.2458,71.4063,288.7550,0,U,69699,999,395,.32060592E-3,.47977E-3,0
STARLINK-37955,2026-145Z,2026-07-20T20:00:01.999008,15.69974894,.0001886,97.2843,49.0104,98.6143,71.6186,0,U,69700,999,533,-.23614E-1,-.2477218E-1,0
STRIX-8,2026-146A,2026-07-20T17:30:02.238048,15.04462447,.0006489,41.9905,342.4366,63.3029,296.8462,0,U,69701,999,361,.19991E-3,.2654E-4,0
ELECTRON R/B,2026-146B,2026-07-20T13:11:48.952896,15.79842259,.0153345,42.0727,329.5526,58.1806,303.3879,0,U,69702,999,375,.10342E-2,.472511E-2,.81899E-4
ELECTRON KICK STAGE R/B,2026-146C,2026-07-20T17:18:14.571072,15.04968281,.0008303,41.9889,342.3703,63.4984,296.6694,0,U,69703,999,361,.17855E-3,.2384E-4,0
STARLINK-38055,2026-147A,2026-07-20T20:00:01.999008,15.76349138,.0001643,97.2841,238.5441,76.5332,90.1955,0,U,69704,999,464,-.85732E-2,-.1195151E-1,0
STARLINK-37898,2026-147B,2026-07-20T20:00:01.999008,15.72092935,.0001935,97.2841,238.5369,74.4457,77.1828,0,U,69705,999,464,-.22159E-1,-.2533606E-1,0
STARLINK-37970,2026-147C,2026-07-20T20:00:01.999008,15.71342450,.0001941,97.2840,238.5380,68.1004,83.2811,0,U,69706,999,464,-.21686E-1,-.2366306E-1,0
STARLINK-37975,2026-147D,2026-07-20T20:00:01.999008,15.77091307,.0002105,97.2837,238.5511,87.4325,92.9429,0,U,69707,999,464,-.18231E-1,-.2526166E-1,0
STARLINK-37972,2026-147E,2026-07-20T20:43:05.532672,15.80871204,.0001111,97.2825,238.5848,102.8230,257.3162,0,U,69708,999,475,.1003E-2,.196875E-2,0
STARLINK-37963,2026-147F,2026-07-20T20:00:01.999008,15.72500094,.000145,97.2841,238.5464,75.6039,98.1971,0,U,69709,999,464,-.10054E-1,-.1186716E-1,0
STARLINK-37969,2026-147G,2026-07-20T14:41:55.552128,15.73422979,.0006061,97.2842,238.3145,288.9235,71.1372,0,U,69710,999,471,.13098E-2,.18511E-2,0
